ONEWEB-0706             
1 61611U 24188T   25278.02543022 -.00000192  00000+0 -58522-3 0  9998
2 61611  87.8740  87.1449 0002286  98.0172 262.1215 13.10370477 49969
ONEWEB-0707             
1 61612U 24188U   25278.18478495 -.00000360  00000+0 -10662-2 0  9996
2 61612  87.8758  87.0817 0002223 100.6997 259.4381 13.10372232 49923
ONEWEB-0708             
1 61613U 24188V   25277.74489336 -.00000243  00000+0 -73271-3 0  9990
2 61613  87.8760  87.2114 0002432  89.9930 270.1476 13.10376401 49845
